{
  "type": "FeatureCollection",
  "features": [
    {
      "type": "Feature",
      "properties": {
        "norad_id": 41859,
        "name": "GSAT0207 (GALILEO 15)",
        "group": "gnss",
        "lat": 13.837857540713795,
        "lon": 116.21567685333125,
        "alt_km": 23216.632217775834,
        "timestamp": "2025-12-05T18:53:13.525507+00:00",
        "meta_object_name": "GSAT0207 (GALILEO 15)",
        "meta_object_id": "2016-069A",
        "meta_epoch": "2025-12-03T23:59:33.819072",
        "meta_mean_motion": 1.70474248,
        "meta_eccentricity": 0.0002136,
        "meta_inclination": 55.3774,
        "meta_ra_of_asc_node": 106.4923,
        "meta_arg_of_pericenter": 325.6107,
        "meta_mean_anomaly": 34.3288,
        "meta_ephemeris_type": 0,
        "meta_classification_type": "U",
        "meta_norad_cat_id": 41859,
        "meta_element_set_no": 999,
        "meta_rev_at_epoch": 5607,
        "meta_bstar": 0,
        "meta_mean_motion_dot": 1.5e-07,
        "meta_mean_motion_ddot": 0,
        "tle_line1": "1 41859U 16069A   25337.99969698  .00000015  00000+0  00000+0 0  9998",
        "tle_line2": "2 41859  55.3774 106.4923 0002136 325.6107  34.3288  1.70474248 56074"
      },
      "geometry": {
        "type": "Point",
        "coordinates": [
          116.21567685333125,
          13.837857540713795
        ]
      }
    },
    {
      "type": "Feature",
      "properties": {
        "norad_id": 41860,
        "name": "GSAT0212 (GALILEO 16)",
        "group": "gnss",
        "lat": 51.99653629866301,
        "lon": -135.64825337746976,
        "alt_km": 23214.064186647007,
        "timestamp": "2025-12-05T18:53:13.525525+00:00",
        "meta_object_name": "GSAT0212 (GALILEO 16)",
        "meta_object_id": "2016-069B",
        "meta_epoch": "2025-12-02T16:19:30.905184",
        "meta_mean_motion": 1.70474418,
        "meta_eccentricity": 0.00022458,
        "meta_inclination": 55.3738,
        "meta_ra_of_asc_node": 106.5243,
        "meta_arg_of_pericenter": 34.2432,
        "meta_mean_anomaly": 325.7313,
        "meta_ephemeris_type": 0,
        "meta_classification_type": "U",
        "meta_norad_cat_id": 41860,
        "meta_element_set_no": 999,
        "meta_rev_at_epoch": 5630,
        "meta_bstar": 0,
        "meta_mean_motion_dot": 2.7e-07,
        "meta_mean_motion_ddot": 0,
        "tle_line1": "1 41860U 16069B   25336.68021881  .00000027  00000+0  00000+0 0  9991",
        "tle_line2": "2 41860  55.3738 106.5243 0002245  34.2432 325.7313  1.70474418 56308"
      },
      "geometry": {
        "type": "Point",
        "coordinates": [
          -135.64825337746976,
          51.99653629866301
        ]
      }
    },
    {
      "type": "Feature",
      "properties": {
        "norad_id": 41861,
        "name": "GSAT0213 (GALILEO 17)",
        "group": "gnss",
        "lat": -46.09489542678545,
        "lon": -27.747390923914935,
        "alt_km": 23222.7322791495,
        "timestamp": "2025-12-05T18:53:13.525542+00:00",
        "meta_object_name": "GSAT0213 (GALILEO 17)",
        "meta_object_id": "2016-069C",
        "meta_epoch": "2025-12-04T19:22:49.962144",
        "meta_mean_motion": 1.70474712,
        "meta_eccentricity": 0.00021375,
        "meta_inclination": 55.3775,
        "meta_ra_of_asc_node": 106.4729,
        "meta_arg_of_pericenter": 283.7545,
        "meta_mean_anomaly": 76.173,
        "meta_ephemeris_type": 0,
        "meta_classification_type": "U",
        "meta_norad_cat_id": 41861,
        "meta_element_set_no": 999,
        "meta_rev_at_epoch": 5620,
        "meta_bstar": 0,
        "meta_mean_motion_dot": 1e-07,
        "meta_mean_motion_ddot": 0,
        "tle_line1": "1 41861U 16069C   25338.80752271  .00000010  00000+0  00000+0 0  9994",
        "tle_line2": "2 41861  55.3775 106.4729 0002137 283.7545  76.1730  1.70474712 56200"
      },
      "geometry": {
        "type": "Point",
        "coordinates": [
          -27.747390923914935,
          -46.09489542678545
        ]
      }
    },
    {
      "type": "Feature",
      "properties": {
        "norad_id": 41862,
        "name": "GSAT0214 (GALILEO 18)",
        "group": "gnss",
        "lat": 23.098094848098917,
        "lon": -90.70167622725707,
        "alt_km": 23221.908573857803,
        "timestamp": "2025-12-05T18:53:13.525564+00:00",
        "meta_object_name": "GSAT0214 (GALILEO 18)",
        "meta_object_id": "2016-069D",
        "meta_epoch": "2025-12-04T08:48:23.346432",
        "meta_mean_motion": 1.7047456,
        "meta_eccentricity": 0.00011429,
        "meta_inclination": 55.3755,
        "meta_ra_of_asc_node": 106.478,
        "meta_arg_of_pericenter": 290.8494,
        "meta_mean_anomaly": 69.0905,
        "meta_ephemeris_type": 0,
        "meta_classification_type": "U",
        "meta_norad_cat_id": 41862,
        "meta_element_set_no": 999,
        "meta_rev_at_epoch": 5632,
        "meta_bstar": 0,
        "meta_mean_motion_dot": 1.3e-07,
        "meta_mean_motion_ddot": 0,
        "tle_line1": "1 41862U 16069D   25338.36693688  .00000013  00000+0  00000+0 0  9995",
        "tle_line2": "2 41862  55.3755 106.4780 0001142 290.8494  69.0905  1.70474560 56322"
      },
      "geometry": {
        "type": "Point",
        "coordinates": [
          -90.70167622725707,
          23.098094848098917
        ]
      }
    },
    {
      "type": "Feature",
      "properties": {
        "norad_id": 42709,
        "name": "SES-15 (WAAS/PRN 133)",
        "group": "gnss",
        "lat": -0.04241452768919352,
        "lon": -131.02040558683476,
        "alt_km": 35781.55044094447,
        "timestamp": "2025-12-05T18:53:13.525584+00:00",
        "meta_object_name": "SES-15 (WAAS/PRN 133)",
        "meta_object_id": "2017-026A",
        "meta_epoch": "2025-12-04T23:23:09.824064",
        "meta_mean_motion": 1.00274528,
        "meta_eccentricity": 9.026e-05,
        "meta_inclination": 0.019,
        "meta_ra_of_asc_node": 341.2917,
        "meta_arg_of_pericenter": 233.8903,
        "meta_mean_anomaly": 80.4857,
        "meta_ephemeris_type": 0,
        "meta_classification_type": "U",
        "meta_norad_cat_id": 42709,
        "meta_element_set_no": 999,
        "meta_rev_at_epoch": 548,
        "meta_bstar": 0,
        "meta_mean_motion_dot": 7.2e-07,
        "meta_mean_motion_ddot": 0,
        "tle_line1": "1 42709U 17026A   25338.97441926  .00000072  00000+0  00000+0 0  9998",
        "tle_line2": "2 42709   0.0190 341.2917 0000902 233.8903  80.4857  1.00274528  5488"
      },
      "geometry": {
        "type": "Point",
        "coordinates": [
          -131.02040558683476,
          -0.04241452768919352
        ]
      }
    },
    {
      "type": "Feature",
      "properties": {
        "norad_id": 42738,
        "name": "QZS-2 (QZSS/PRN 194)",
        "group": "gnss",
        "lat": -37.219747039939136,
        "lon": 131.89631774029027,
        "alt_km": 32741.560348597854,
        "timestamp": "2025-12-05T18:53:13.525603+00:00",
        "meta_object_name": "QZS-2 (QZSS/PRN 194)",
        "meta_object_id": "2017-028A",
        "meta_epoch": "2025-12-04T14:21:45.952128",
        "meta_mean_motion": 1.00285177,
        "meta_eccentricity": 0.0758839,
        "meta_inclination": 39.7274,
        "meta_ra_of_asc_node": 246.0027,
        "meta_arg_of_pericenter": 269.3925,
        "meta_mean_anomaly": 275.2021,
        "meta_ephemeris_type": 0,
        "meta_classification_type": "U",
        "meta_norad_cat_id": 42738,
        "meta_element_set_no": 999,
        "meta_rev_at_epoch": 567,
        "meta_bstar": 0,
        "meta_mean_motion_dot": -1.53e-06,
        "meta_mean_motion_ddot": 0,
        "tle_line1": "1 42738U 17028A   25338.59844852 -.00000153  00000+0  00000+0 0  9996",
        "tle_line2": "2 42738  39.7274 246.0027 0758839 269.3925 275.2021  1.00285177  5673"
      },
      "geometry": {
        "type": "Point",
        "coordinates": [
          131.89631774029027,
          -37.219747039939136
        ]
      }
    },
    {
      "type": "Feature",
      "properties": {
        "norad_id": 42917,
        "name": "QZS-3 (QZSS/PRN 199)",
        "group": "gnss",
        "lat": -0.05178894794064164,
        "lon": 125.1194064747861,
        "alt_km": 35791.53582182378,
        "timestamp": "2025-12-05T18:53:13.525621+00:00",
        "meta_object_name": "QZS-3 (QZSS/PRN 199)",
        "meta_object_id": "2017-048A",
        "meta_epoch": "2025-12-05T02:58:38.763264",
        "meta_mean_motion": 1.00275163,
        "meta_eccentricity": 0.00021993,
        "meta_inclination": 0.0707,
        "meta_ra_of_asc_node": 217.7047,
        "meta_arg_of_pericenter": 39.9277,
        "meta_mean_anomaly": 348.215,
        "meta_ephemeris_type": 0,
        "meta_classification_type": "U",
        "meta_norad_cat_id": 42917,
        "meta_element_set_no": 999,
        "meta_rev_at_epoch": 3031,
        "meta_bstar": 0,
        "meta_mean_motion_dot": -3.35e-06,
        "meta_mean_motion_ddot": 0,
        "tle_line1": "1 42917U 17048A   25339.12405976 -.00000335  00000+0  00000+0 0  9999",
        "tle_line2": "2 42917   0.0707 217.7047 0002199  39.9277 348.2150  1.00275163 30310"
      },
      "geometry": {
        "type": "Point",
        "coordinates": [
          125.1194064747861,
          -0.05178894794064164
        ]
      }
    }
  ]
}